stationid,county,recordtype,startdate,stationname,areatype,noisetype,address,status,enddate,endreason,sideroad,sideroadwidth,longitude,latitude
3635620EN004,高雄市,人工,930520,大林蒲監測站,第二類,一般地區環境音量,高雄市小港區鳳林路207號,使用中,,,,10,120.342951,22.526432
3635520EN010,高雄市,人工,931127,旗津監測站,第三類,一般地區環境音量,高雄市旗津區旗津二路455號,使用中,,,,6,120.287241,22.586059
3635420EN011,高雄市,人工,930521,前鎮監測站,第一類,一般地區環境音量,高雄市前鎮區北一路七號,使用中,,,,6,120.287461,22.607593
3635320TN009,高雄市,人工,940610,凱旋監測站,第三類,道路交通噪音,高雄市苓雅區凱旋二路145號,使用中,,,,10,120.321788,22.629322
3635320TN008,高雄市,人工,930520,福德監測站,第三類,道路交通噪音,高雄市苓雅區三多二路102號,使用中,,,,30,120.322191,22.620003
3635320TN005,高雄市,人工,940428,苓雅監測站,第二類,道路交通噪音,高雄市苓雅區福德一路77號,使用中,,,,10,120.328038,22.632352
3635320EN003,高雄市,人工,930513,河東監測站,第二類,一般地區環境音量,高雄市苓雅區建國一路142號,使用中,,,,6,120.3302,22.633085
3635220TN004,高雄市,人工,940820,前金監測站,第二類,道路交通噪音,高雄市前金區河東路359號,使用中,,,,10,120.286877,22.631431
3635220EN007,高雄市,人工,940225,新興監測站,第三類,一般地區環境音量,高雄市中前金區自強二路169號,使用中,,,,12,120.294277,22.627554
3635120EN008,高雄市,人工,930519,十全監測站,第三類,一般地區環境音量,高雄市新興區忠孝一路331號,使用中,,,,,120.305958,22.633372
3635020TN007,高雄市,人工,940313,民族監測站,第三類,道路交通噪音,高雄市三民區民族一路418號,使用中,,,,40,120.315485,22.653334
3635020TN003,高雄市,人工,930519,義華監測站,第二類,道路交通噪音,高雄市三民區義華路272號,使用中,,,,12,120.337629,22.643502
3634920TN011,高雄市,人工,930519,楠梓監測站,第一類,道路交通噪音,高雄市楠梓區左楠路2號,使用中,,,,15,120.308769,22.712718
3634820TN002,高雄市,人工,930519,環潭監測站,第一類,道路交通噪音,高雄市左營區蓮潭路176號,使用中,,,,15,120.294499,22.68439
3634820EN012,高雄市,人工,930521,半屏山監測站,第一類,一般地區環境音量,高雄市楠梓區屏山巷一號,使用中,,,,,120.31909,22.702365
3634720TN001,高雄市,人工,930521,西子灣監測站,第一類,道路交通噪音,高雄市鼓山區蓮海路170號,使用中,,,,12,120.265864,22.625152
3634720EN005,高雄市,人工,940309,文化監測站,第二類,一般地區環境音量,高雄市鼓山區鼓三二路37巷101號,使用中,,,,6,120.277242,22.632253
3634720EN002,高雄市,人工,930513,鼓山監測站,第一類,一般地區環境音量,高雄市鼓山區鼓山路115巷4號,使用中,,,,6,120.279844,22.644739
3634720EN001,高雄市,人工,930513,壽山監測站,第一類,一般地區環境音量,高雄市鼓山區桃源里93-1號,使用中,,,,,120.261616,22.644997
3634620EN009,高雄市,人工,1080101,七賢監測站,第三類,一般地區環境音量,高雄市鹽埕區大安街3-11號,使用中,,,,,120.277705,226.622396
3622320TN012,高雄市,人工,930116,大社工業區監測站,第一類,道路交通噪音,高雄市大社區建經路5號,使用中,,,,20,120.340247,22.726553
3621520TN010,高雄市,人工,930116,鳳山中山西路監測站,第三類,道路交通噪音,高雄市鳳山區中山西路154-6號,使用中,,,,20,120.351223,22.627598
3621520TN006,高雄市,人工,930116,鳳山國泰路監測站,第二類,道路交通噪音,高雄市鳳山區國泰路一段69巷1號,使用中,,,,20,120.360289,22.614209
3621520EN006,高雄市,人工,930116,鳳山文山路監測站,第二類,一般地區環境音量,高雄市鳳山區文山路園藝巷4號,使用中,,,,6,120.36134,22.641937
3533320TN021,臺南市,人工,930107,安平污水廠,第一類,道路交通噪音,臺南市安平區新樂路71號,使用中,,,新樂路,19.5,120.176796,22.964783
3533320EN030,臺南市,人工,1110326,億載公園,第二類,一般地區環境音量,臺南市安平區永華路二段1318號,使用中,,,,12,120.158736,22.990657
3533320EN028,臺南市,人工,980928,億載國小,第二類,一般地區環境音量,臺南市安平區漁光里133號,使用中,,,,8,120.158311,22.978429
3533320EN021,臺南市,人工,930106,安平污水廠,第一類,一般地區環境音量,臺南市安平區新樂路71號,使用中,,,,12.8,120.176617,22.966512
3533220TN027,臺南市,人工,980928,四草野生動物,第一類,道路交通噪音,臺南市安南區本田路二段300巷,使用中,,,大眾路,6.9,120.141184,23.026166
3533220EN027,臺南市,人工,980928,高腳(行鳥)保護區,第一類,一般地區環境音量,臺南市安南區北汕尾三路100號,使用中,,,,19,120.136792,23.047066
3533020TN029,臺南市,人工,980928,公園國小,第二類,道路交通噪音,臺南市北區公園路180號,使用中,,,公園南路,10,120.209109,23.000914
3532820TN025,臺南市,人工,930107,南區圖書館,第三類,道路交通噪音,臺南市南區喜樹路179號,使用中,,,喜樹路,11,120.178084,22.940363
3532820EN031,臺南市,人工,1020312,水萍塭公園,第三類,一般地區環境音量,台南市南區金華路二段與建南路交界旁公園,使用中,,,金華路二段,,120.192501,22.985282
3532720TN028,臺南市,人工,980928,成功大學,第二類,道路交通噪音,臺南市東區大學路1號,使用中,,,勝利路,9.4,120.218387,22.999737
3521020EN030,臺南市,人工,1020312,台南都會公園,第三類,一般地區環境音量,台南市仁德區二仁路二段與文華路二段交界旁公園,使用中,,,二仁路二段,,120.222938,22.936578
3520720TN001,臺南市,人工,1100406,台灣中油楠西站,第三類,道路交通噪音,臺南市楠西區中正路359號,使用中,,,,12.7,120.48816,23.170487
3520620TN001,臺南市,人工,931001,玉井工商,第二類,道路交通噪音,臺南市玉井區玉井工商,使用中,,測站編號已改,台20省道中山路,26,120.460471,23.120109
3520020EN001,臺南市,人工,1100406,黑面琵鷺野生動物保護區,第一類,一般地區環境音量,七股區黑面琵鷺賞鳥亭,使用中,,,,,120.05274,23.079112
3519720TN001,臺南市,人工,931001,官田工業區加油站,第一類,道路交通噪音,臺南市官田區二區村工業路23-1號,使用中,,,工業路,23.74,120.323072,23.210348
3519720EN002,臺南市,人工,931001,台南職業訓練中心,第一類,一般地區環境音量,臺南市官田區官田工業區工業路40號,使用中,,,,,120.322791,23.21484
3519720EN001,臺南市,人工,931001,官田區工業北路,第三類,一般地區環境音量,官田區工業北路與工社中街交接處旁空地,使用中,,,,,120.326114,23.217485
3519620TN001,臺南市,人工,931001,烏山頭水庫管理局,第一類,道路交通噪音,臺南市六甲區烏山頭水庫,使用中,,,南117鄉道八田路,6,120.362906,23.208091
3519120TN001,臺南市,人工,931001,學甲區公所,第三類,道路交通噪音,臺南市華宗路313號,使用中,,,華宗路,20,120.182629,23.230001
3518620TN001,臺南市,人工,931001,白河區公所,第三類,道路交通噪音,臺南市白河區中山路,使用中,,,中山路,12,120.416121,23.351175
3518620EN001,臺南市,人工,931001,內角國小,第二類,一般地區環境音量,臺南市白河區內角里12鄰1號,使用中,,,165縣道嘉白公路,20,120.440238,23.397142
3518520TN001,臺南市,人工,931001,孫厝里(忠義廟),第二類,道路交通噪音,孫厝里15之12號旁,使用中,,,南6鄉道,9,120.233603,23.290313
3518520EN001,臺南市,人工,931001,歡雅國小,第二類,一般地區環境音量,臺南市鹽水區孫厝里歡雅國小,使用中,,,台19省道中央公路,20,120.243692,23.293123
3518420EN002,臺南市,人工,980623,新營區中興路台糖公司旁,第三類,一般地區環境音量,新營區中興路台糖公司旁,使用中,,,中興路,,120.317286,23.298911
3432520TN005,臺中市,人工,890101,北屯區梅川東路五段,第三類,道路交通噪音,梅川東路五段146號,使用中,,,,10,120.682084,24.17912
3432420EN006,臺中市,人工,890101,文山垃圾焚化廠,第三類,一般地區環境音量,台中市南屯區文山南巷500號,使用中,,,文山南巷,8,120.591812,24.156377
3432320TN002,臺中市,人工,890101,職訓中心,第一類,道路交通噪音,台中市西屯區工業區一路100號,使用中,,,工業區一路,15,120.603281,24.175063
3432320EN002,臺中市,人工,890101,臺中工業區污水處理廠,第一類,一般地區環境音量,台中市西屯區工業區四路1號,使用中,,,工業區四路,6,120.611472,24.164223
3432220EN005,臺中市,人工,890101,逢甲國小,第二類,一般地區環境音量,台中市北區北坑巷60號,使用中,,,北坑巷,6,120.775602,24.171368
3432120TN002,臺中市,人工,890101,英才站,第二類,道路交通噪音,台中市西區英才路600號,使用中,,,英才路,25,120.665204,24.142554
3432020TN004,臺中市,人工,890101,西區三民路一段,第三類,道路交通噪音,台中市西區三民路一段120號,使用中,,,三民路,25,120.671103,24.134036
3432020EN004,臺中市,人工,890101,瑪利諾會館,第二類,一般地區環境音量,台中市西區三民路一段120號,使用中,,,三民路,25,120.671151,24.133668
3431920EN223,臺中市,人工,890101,環保局東南區隊,第三類,一般地區環境音量,台中市南區復興路一段59號,使用中,,,復興路,25,120.646775,24.11122
3410620TN002,臺中市,人工,1020417,和平區雪山路43K處,第一類,道路交通噪音,和平區雪山路43K附近,使用中,,,雪山路,3,121.009044,24.257322
3410620TN001,臺中市,人工,1020417,和平區雪山路41K處,第一類,道路交通噪音,和平區雪山路41K附近,使用中,,,雪山路,3,120.999802,24.266691
3410620EN002,臺中市,人工,1020417,雪山派出所,第一類,一般地區環境音量,和平區雪山路10號,使用中,,,雪山路,,121.008879,24.257423
3410620EN001,臺中市,人工,1020417,鞍馬山工作站,第一類,一般地區環境音量,和平區雪山路23號,使用中,,,雪山路,,120.998759,24.26625
3410520TN003,臺中市,人工,890101,大里仁化路,第一類,道路交通噪音,台中市大里區仁化路大里工業區前,使用中,,,仁化路,30,120.713879,24.094278
3410520EN001,臺中市,人工,890101,大里工業區,第一類,一般地區環境音量,台中市大里區工業路2號,使用中,,,工業路,30,120.715247,24.095566
3410423TN002,臺中市,人工,1020809,太平永平路,第二類,道路交通噪音,台中市太平區永平路體育場旁,使用中,,,永平路,30,120.720766,24.130673
3410020TN001,臺中市,人工,1011112,烏日區環河路,第三類,道路交通噪音,台中市烏日區五光路281號,使用中,,,五光路,12,120.6475,24.092479
3409623EN002,臺中市,自動,930101,月湖活動中心,第三類,一般地區環境音量,"台中市新社區月湖里新居街 月湖社區活動中心旁",使用中,,,新居街,7.8,120.820255,24.235959
3409623EN001,臺中市,人工,930101,新社環保公園,第三類,一般地區環境音量,台中市新社區復盛里興社街二段26號旁,使用中,,,興社街,6.9,120.813475,24.224424
3409223TN003,臺中市,自動,930101,后里甲后路,第三類,道路交通噪音,台中市后里區甲后路700號前,使用中,,,甲后路,12,120.714684,24.310182
3409220TN002,臺中市,人工,930628,后里文化路,第二類,道路交通噪音,台中市后里區文化路30號旁,使用中,,,文化路,8,120.714437,24.307229
3409020EN003,臺中市,人工,890101,海區服務中心,第二類,一般地區環境音量,台中市沙鹿區中山路658號,使用中,,,中山路,30,120.570171,24.257123
3408723EN001,臺中市,自動,930101,東勢區公所,第二類,一般地區環境音量,台中市東勢區第六橫街103巷18號旁,使用中,,,第六橫街,6.1,120.828259,24.258644
3408623TN001,臺中市,自動,830101,豐原中興路,第二類,道路交通噪音,台中市豐原區中興路136號,使用中,,,中興路,20,120.713625,24.24805
2534520EN014,臺北市,人工,950701,北鐵點,第一類,一般地區環境音量,信義區市民大道5段48號附近,使用中,,,市民大道,25,121.563168,25.047017
2534423TN306,臺北市,自動,880601,石牌點,第三類,道路交通噪音,台北市北投區石牌路二段111號附近,使用中,,,石牌路二段,8.5,121.517158,25.118049
2534420TN304,臺北市,人工,930218,大業點,第三類,道路交通噪音,台北市北投區大業路302號附近,使用中,,,大業路,30.4,121.498318,25.128268
2534420TN105,臺北市,人工,911118,陽金點,第一類,道路交通噪音,台北市北投區陽金公路近七星山登山口附近,使用中,,,陽金公路,10.6,121.542842,25.179748
2534420EN301,臺北市,人工,1030128,洲美點,第三類,一般地區環境音量,北投區洲美街271號附近,使用中,,,洲美街,,121.510218,25.106578
2534420EN201,臺北市,人工,1001001,致遠點,第二類,一般地區環境音量,臺北市北投區致遠二路八十號附近,使用中,,,致遠二路,,121.512056,25.115135
2534420EN012,臺北市,人工,940203,鞍部點,第一類,一般地區環境音量,台北市北投區竹子湖路111號附近,使用中,,,竹子湖路,,121.529061,25.18251
2534420EN011,臺北市,人工,950701,湖田點,第一類,一般地區環境音量,北投區竹子湖路17之2號附近,使用中,,,竹子湖路,6,121.538857,25.168761
2534420EN010,臺北市,人工,930218,關渡點,第二類,一般地區環境音量,台北市北投區關渡路55號附近,使用中,,,關渡路55號,8.2,121.469264,25.120167
2534320TN208,臺北市,人工,870723,至善點,第二類,道路交通噪音,台北市士林區至善路二段407號附近,使用中,,,至善路二段,16.2,121.557047,25.109413
2534320TN103,臺北市,人工,870723,格致點,第一類,道路交通噪音,台北市士林區格致路237號附近,使用中,,,格致路,10.6,121.548867,25.144071
2534320EN008,臺北市,人工,930218,社子點,第三類,一般地區環境音量,台北市士林區延平北路七段250號附近,使用中,,,延平北路七段,7.5,121.48738,25.103433
2534220TN308,臺北市,人工,971119,民權點,第三類,道路交通噪音,內湖區民權東路6段附近,使用中,,,成功路2段,10,121.599469,25.066747
2534220EN005,臺北市,人工,901101,安康點,第一類,一般地區環境音量,台北市內湖區安康路290號附近,使用中,,,安康路,10,121.606877,25.064298
2534120TN405,臺北市,人工,870723,南港點,第一類,道路交通噪音,台北市南港區南港路三段106號附近,使用中,,,南港路二段,17,121.589529,25.053354
2534120TN209,臺北市,人工,950701,舊二點,第二類,道路交通噪音,南港區舊莊路1段212巷8號附近,使用中,,,舊莊路1段212巷,10,121.62024,25.041768
2534020TN210,臺北市,人工,971119,萬興點,第二類,道路交通噪音,秀明路2段114號附近,使用中,,,"新光路一段,萬壽路",8,121.576928,24.98969
2533920TN404,臺北市,人工,881022,大同點,第一類,道路交通噪音,台北市中山區中山北路三段40號附近,使用中,,,中山北路,25,121.522222,25.066358
2533820EN202,臺北市,人工,1030128,永樂點,第二類,一般地區環境音量,台北市延平北路二段266號附近,使用中,,環署空字第1030008527號函,延平北路二段,,121.518226,25.05933
2533820EN007,臺北市,人工,930218,太原點,第三類,一般地區環境音量,台北市大同區太原路151號附近,使用中,,,太原路,8,121.516594,25.054924
2533720TN207,臺北市,人工,1020909,青年點,第二類,道路交通噪音,台北市萬華區青年路186號附近,使用中,,,青年路,8,121.851558,25.032646
2533720EN013,臺北市,人工,950701,福星點,第三類,一般地區環境音量,萬華區中華路1段66號附近,使用中,,,開封街,12,121.507963,25.046614
2533520TN307,臺北市,人工,930218,新生點,第三類,道路交通噪音,台北市大安區新生南路二段32號附近,使用中,,,新生南路,35,121.533101,25.031727
2533520EN012,臺北市,人工,950701,長興點,第二類,一般地區環境音量,大安區長興街131號附近,使用中,,,辛亥路三段,25,121.548239,25.014636
2332623TN001,嘉義市,自動,950101,嘉義市文化局前人行道,第三類,道路交通噪音,嘉義市忠孝路275號前人行道,使用中,,,忠孝路,90,120.452975,23.488163
2332620TN008,嘉義市,人工,950101,嘉大蘭潭學苑,第二類,道路交通噪音,嘉義市鹿寮里學府路300號,使用中,,,學府路,20,120.483563,23.463207
2332620TN007,嘉義市,人工,950101,嘉義市西區衛生所,第三類,道路交通噪音,嘉義市德明路1號,使用中,,,北港路,30,120.430981,23.479696
2332620TN006,嘉義市,人工,950101,蘭潭家福護理之家,第二類,道路交通噪音,嘉義市鹿寮里學府路299號,使用中,,,學府路,20,120.478606,23.462853
2332620TN003,嘉義市,人工,950115,嘉義市中油煉研所,第一類,道路交通噪音,嘉義市美源里民生南路217號,使用中,,,民生南路,20,120.446087,23.466829
2332620TN002,嘉義市,人工,950101,嘉義市嘉義酒廠,第三類,道路交通噪音,嘉義市驛站里中山路659號,使用中,,,中山路,22,120.439897,23.476965
2332620EN005,嘉義市,人工,950101,嘉義市環保局,第三類,一般地區環境音量,嘉義市吳鳳北路184號6樓,使用中,,,,22,120.453495,23.478677
2332620EN004,嘉義市,人工,950101,嘉義市後湖派出所,第一類,一般地區環境音量,嘉義市後湖里忠孝路537號,使用中,,,,90,120.450448,23.4988
2332620EN003,嘉義市,人工,950101,公園淨水場,第三類,一般地區環境音量,嘉義市民權東路46號,使用中,,,,25,120.478038,23.483819
2332620EN002,嘉義市,人工,950101,鹿寮里里長家,第二類,一般地區環境音量,嘉義市鹿寮里4鄰紅毛埤159號,使用中,,,,20,120.484056,23.463207
2332620EN001,嘉義市,人工,950101,嘉義市仁義潭水庫管理處,第二類,一般地區環境音量,嘉義市鹿寮里紅毛埤30之2號,使用中,,,,20,120.524139,23.455373
2131720TN010,新竹市,人工,970331,空軍基地古賢門崗哨,第一類,道路交通噪音,,使用中,,,,10,120.948958,24.832613
2131720TN009,新竹市,人工,930511,香山中學,第二類,道路交通噪音,元培街124號,使用中,,,元培街,12,120.930451,24.78501
2131720TN006,新竹市,人工,930429,內湖國小,第二類,道路交通噪音,內湖路109號,使用中,,,內湖路,12,120.90615,24.742096
2131720TN004,新竹市,人工,930429,新竹高工,第三類,道路交通噪音,中華路二段2號,使用中,,,中華路,24,120.983049,24.809433
2131720TN003,新竹市,人工,930429,育賢國中,第三類,道路交通噪音,南大路569號,使用中,,,南大路,12,120.965561,24.790027
2131720EN012,新竹市,人工,1110426,大庄國小,第三類,一般地區環境音量,新竹市香山區大庄路48號,使用中,,,大庄路,12,120.926946,24.789152
2131720EN011,新竹市,人工,1110426,南隘國小,第二類,一般地區環境音量,新竹市香山區南隘路二段31號,使用中,,,南隘路二段,4,120.55447,24.43398
2131720EN009,新竹市,人工,930429,大湖國小,第二類,一般地區環境音量,五福路一段530號,使用中,,,五福路,12,120.933372,24.745409
2131720EN007,新竹市,人工,970331,中正路底(空軍基地),第一類,一般地區環境音量,中正路底,使用中,,,中正路,18,120.9438692,24.82288027
2131720EN003,新竹市,人工,930429,龍山國小,第三類,一般地區環境音量,光復路一段570號,使用中,,,光復路,24,121.007672,24.789345
2031623TN001,基隆市,自動,1030806,深澳坑路測站,第三類,道路交通噪音,信義區深澳坑路37號對面,使用中,,,深澳坑路,17,121.781484,25.127092
2031620TN007,基隆市,人工,940322,深美測站,第二類,道路交通噪音,信義區教忠街25巷口,使用中,,,教忠街,11,121.776854,25.136995
2031620EN009,基隆市,人工,940322,港都測站,第二類,一般地區環境音量,信義區教孝接78-83號(港都傳奇社區),使用中,,,,10,121.776302,25.137777
2031520TN006,基隆市,人工,940322,崇德測站,第二類,道路交通噪音,安樂區崇德路87之1號附近,使用中,,,崇德路,8,121.732609,25.128608
2031520EN010,基隆市,人工,971222,大武崙東都站,第一類,一般地區環境音量,基隆市安樂區基金二路1巷180號,使用中,,,,8,121.700621,25.141982
2031220EN004,基隆市,人工,1030806,碇內測站,第三類,一般地區環境音量,暖暖區碇內街9-1號(東方瑞士社區),使用中,,,碇內街,9.2,121.75485,25.096316
2031123TN001,基隆市,自動,1030806,工建西路測站,第一類,道路交通噪音,七堵區工建西路7號,使用中,,,工建西路,17,121.700953,25.094111
2031120EN011,基隆市,人工,1030806,麗景江山站,第二類,一般地區環境音量,基隆市七堵區麗景一街90號3樓,使用中,,,,10,121.670537,25.086629
2031020TN004,基隆市,人工,1030806,海洋測站,第三類,道路交通噪音,中正區新豐街426號前,使用中,,,新豐街,8.3,121.78643,25.135708
2031020EN003,基隆市,人工,1030806,新豐測站,第三類,一般地區環境音量,中正區新豐街428號(巴塞隆納社區),使用中,,,新豐街,10,121.79,25.14
1930420TN007,澎湖縣,人工,930224,自來水公司,第一類,道路交通噪音,澎湖縣馬公市新生路一三０號,使用中,,,新生路,10,119.573613,23.569656
1930420TN005,澎湖縣,人工,930224,警光會館,第三類,道路交通噪音,澎湖縣馬公市明遠路五十二號,使用中,,,明遠路,10,119.565791,23.570684
1930420TN004,澎湖縣,人工,930224,大家加油站,第二類,道路交通噪音,澎湖縣馬公市西文里一0六之一六號,使用中,,,二０二縣道,18,119.58322,23.569534
1930420TN003,澎湖縣,人工,930224,澎湖縣議會,第三類,道路交通噪音,澎湖縣馬公市中正路七十六號,使用中,,,中正路,7,119.56673,23.568555
1930420TN001,澎湖縣,人工,930224,家畜防治所,第二類,道路交通噪音,澎湖縣馬公市西文里一一八之一號,使用中,,,二０四縣道,18,119.583553,23.568108
1930420EN006,澎湖縣,人工,930224,啟明派出所,第三類,一般地區環境音量,澎湖縣馬公市仁愛路十六號,使用中,,,仁愛路,7,119.56732,23.565167
1930420EN005,澎湖縣,人工,930224,文澳派出所,第二類,一般地區環境音量,澎湖縣馬公市東文里五號,使用中,,,新生路,7,119.585398,23.563259
1930420EN004,澎湖縣,人工,930224,澎湖縣紅十字會,第三類,一般地區環境音量,澎湖縣馬公市民生路四十號,使用中,,,民生路,7,119.567256,23.567803
1930420EN002,澎湖縣,人工,930224,台電澎湖發電廠,第一類,一般地區環境音量,澎湖縣馬公市海埔路五十五號,使用中,,,海埔路,10,119.570174,23.567842
1930420EN001,澎湖縣,人工,930224,澎湖縣政府,第二類,一般地區環境音量,澎湖縣馬公市治平路32號,使用中,,,治平路,10,119.566602,23.569991
1830120TN002,花蓮縣,人工,1040304,花蓮縣秀林鄉,第一類,道路交通噪音,太管處收費站前,使用中,,,台八線,8,121.577368,24.172518
1830120EN001,花蓮縣,人工,1040304,花蓮縣秀林鄉,第一類,一般地區環境音量,太管處服務中心警察局前,使用中,,,,6,121.623073,24.157943
1829523TN001,花蓮縣,自動,1040304,吉安鄉警察局,第三類,道路交通噪音,吉安鄉中正路一段三十八號前,使用中,,,中正路一段,10,121.593343,23.967916
1829520TN005,花蓮縣,人工,1040304,本局,第二類,道路交通噪音,花蓮市民權路123號,使用中,,,民權路,10,121.626479,23.988919
1829520EN007,花蓮縣,人工,1040304,中山路一段109巷,第三類,一般地區環境音量,花蓮市中山路一段109巷39號,使用中,,,,15,121.59241,23.998348
1829520EN006,花蓮縣,人工,1040304,國風國中,第二類,一般地區環境音量,花蓮市林政街七號,使用中,,,,8,121.595542,23.978361
1829520EN005,花蓮縣,人工,1040304,吉安鄉衛生所,第三類,一般地區環境音量,花蓮縣吉安鄉吉安村137號,使用中,,,,10,121.563715,23.973921
1829520EN004,花蓮縣,人工,1040304,光華工業區,第一類,一般地區環境音量,光華工業區行政中心(華中路/南濱路口),使用中,,,,10,121.593912,23.936271
1829520EN001,花蓮縣,人工,1040304,福興舊村十九鄰六號,第二類,一般地區環境音量,福興舊村十九鄰六號前,使用中,,,福興四街,6,121.560438,23.966833
1829120TN004,花蓮縣,人工,1040304,花蓮市美崙工業區,第一類,道路交通噪音,管理中心前(精美路與美工路交差路口),使用中,,,美工路與精美路,8,121.630674,24.013079
1829120TN003,花蓮縣,人工,1040304,花蓮市褔建街,第二類,道路交通噪音,花蓮市褔建街四三七號前,使用中,,,福建街,8,121.608787,23.974274
1829120TN001,花蓮縣,人工,1040304,花蓮市中山路五四九號,第三類,道路交通噪音,花蓮市中山路五四九之一號,使用中,,,中山路,8,121.601363,23.987042
1727520TN013,臺東縣,人工,1130115,台東大學知本校區,第二類,道路交通噪音,台東縣台東市西康路二段369號,使用中,,,,15,121.149027,22.757588
1727520TN012,臺東縣,人工,1121124,台東縣議會,第三類,道路交通噪音,台東市中興路二段727號,使用中,,,"連航路,民航路",14,121.11989,22.7685
1727520TN011,臺東縣,人工,1110607,海巡署東部分署,第二類,道路交通噪音,臺東縣臺東市興安路二段546號,使用中,,,,10,121.12646,22.80435
1727520TN010,臺東縣,人工,1050831,台東美術館,第一類,道路交通噪音,,使用中,,,浙江路,17.4,121.0925091,22.7644
1727520TN006,臺東縣,人工,960507,台糖,第一類,道路交通噪音,台東市中興路二段191號,使用中,,,新生路,20,121.129326,22.767387
1727520TN005,臺東縣,人工,960507,南區環管中心台東辦公室,第三類,道路交通噪音,台東市博愛路119號,使用中,,,"四維路,仁德街",15,121.09102,22.45606
1727520EN013,臺東縣,人工,1130115,台東大學知本校區,第二類,一般地區環境音量,台東縣台東市西康路二段369號,使用中,,,,15,121.148863,22.757786
1727520EN012,臺東縣,人工,1121124,台東縣議會,第三類,一般地區環境音量,台東市中興路二段727號,使用中,,,"民航路,連航路",14,121.11989,22.7685
1727520EN011,臺東縣,人工,1110607,海巡署東部分署,第二類,一般地區環境音量,臺東縣臺東市興安路二段546號,使用中,,,,,121.12646,22.80435
1727520EN010,臺東縣,人工,1050831,台東美術館,第一類,一般地區環境音量,台東市浙江路350號,使用中,,,四維路二段及開封街,,121.0925091,22.7644
1727520EN006,臺東縣,人工,960507,台糖,第一類,一般地區環境音量,台東市中興路二段191號,使用中,,,新生路,20,121.07713,22.46014
1727520EN005,臺東縣,人工,960507,南區環管中心台東辦公室,第三類,一般地區環境音量,台東市博愛路119號,使用中,,,四維路三段,15,121.09102,22.45606
1627020TN002,屏東縣,人工,1020904,泰武鄉公所,第二類,道路交通噪音,屏東縣泰武鄉佳平村169號,使用中,,,佳平村,10,120.631814,22.591626
1626720EN002,屏東縣,人工,1020904,三地門鄉公所,第二類,一般地區環境音量,屏東縣三地門鄉三地村中正路2段100號,使用中,,,,10,120.654339,22.716281
1625920TN004,屏東縣,人工,1020923,崁頂鄉公所,第三類,道路交通噪音,屏東縣崁頂鄉中正路230號,使用中,,,,10,120.513711,22.514747
1625420TN006,屏東縣,人工,1020910,內埔工業區,第一類,道路交通噪音,屏東縣內埔鄉豐田村建國路4號,使用中,,,中正路,20,120.541112,22.637877
1624920TN005,屏東縣,人工,1020910,九如鄉民代表會,第三類,道路交通噪音,屏東縣九如鄉九如路二段416號,使用中,,,九如二段,20,120.490124,22.740288
1624820TN003,屏東縣,人工,1020916,麟洛鄉公所,第二類,道路交通噪音,屏東縣麟洛鄉麟蹄村中山路158號,使用中,,,中山路,20,120.527122,22.650591
1624520TN001,屏東縣,人工,1020927,墾丁公園警察隊,第一類,道路交通噪音,屏東縣恆春鎮墾丁路272號,使用中,,,墾丁路,20,120.796351,21.94617
1624520EN007,屏東縣,人工,1020927,墾丁公園國家管理處,第一類,一般地區環境音量,屏東縣恆春鎮墾丁路596號,使用中,,,,20,120.780682,21.949832
1624320EN005,屏東縣,人工,1020902,潮州社區活動中心,第三類,一般地區環境音量,屏東縣潮州三和里中興路57號,使用中,,,,6,120.539106,22.555327
1624320EN003,屏東縣,人工,1020902,潮和國小,第二類,一般地區環境音量,屏東縣潮州鎮三和里華嚴街一號,使用中,,,,8,120.537422,22.557012
1624223TN002,屏東縣,自動,1020701,國立屏東女中,第三類,道路交通噪音,屏東市仁愛路94號,使用中,,,仁愛路,20,120.493589,22.674441
1624223TN001,屏東縣,自動,1020701,唐榮國小,第三類,道路交通噪音,屏東市中山路41號,使用中,,,中山路,20,120.486063,22.671922
1624220EN008,屏東縣,人工,1100809,屏東縣政府環境保護局,第三類,一般地區環境音量,屏東市北興街56號,使用中,,,,10,120.495002,22.688605
1624220EN006,屏東縣,人工,1020916,屏東工業區,第一類,一般地區環境音量,屏東市工業路五號,使用中,,,,20,120.499045,22.663136
1318320TN004,嘉義縣,人工,,嘉義縣衛生人員訓練中心,第一類,道路交通噪音,嘉義縣阿里山鄉中山村南阿里山58號,使用中,,,,10,120.802424,23.509504
1318320EN002,嘉義縣,人工,,天主教福若瑟服務中心,第一類,一般地區環境音量,嘉義縣阿里山鄉中山村南阿里山57號,使用中,,,,10,120.802263,23.509298
1317620TN003,嘉義縣,人工,,嘉太工業區服務中心,第一類,道路交通噪音,嘉義縣嘉太工業區中興路1號,使用中,,,嘉北公路,15,120.362864,23.508983
1317620EN003,嘉義縣,人工,,嘉太工業區污水處理廠,第一類,一般地區環境音量,嘉義縣太保市嘉太工業區中興路二一號,使用中,,,,10,120.356019,23.50912
1317220TN003,嘉義縣,人工,,六腳鄉公所,第三類,道路交通噪音,嘉義縣六角鄉蒜頭村蒜頭73號,使用中,,,嘉50線,10,120.290138,23.494367
1317220TN002,嘉義縣,人工,,溪厝村辦公室,第二類,道路交通噪音,嘉義縣六腳鄉溪厝村溪墘厝77-1號,使用中,,,嘉50線,10,120.269383,23.494598
1317220TN001,嘉義縣,人工,,灣南村辦公處,第二類,道路交通噪音,嘉義縣六腳鄉灣南村11鄰145號,使用中,,,嘉56線,13,120.308447,23.497875
1317220EN002,嘉義縣,人工,,正義村辦公處,第二類,一般地區環境音量,嘉義縣六腳鄉正義村中溝7號,使用中,,,,10,120.246225,23.477865
1317220EN001,嘉義縣,人工,,雙涵村活動中心,第二類,一般地區環境音量,嘉義縣六腳村雙涵村4鄰34號,使用中,,,,7,120.301087,23.513523
1316926TN001,嘉義縣,人工,,民雄工業區測站,第一類,道路交通噪音,民雄工業區中山路與台一線交叉口,使用中,,,中山路,15,120.44054,23.520473
1316620TN002,嘉義縣,人工,1020325,竹圍里集會所,第三類,道路交通噪音,嘉義縣朴子市四維路2段78號,使用中,,,四維路,29,120.241027,23.459054
1316620EN005,嘉義縣,人工,1020306,梅嶺美術館,第三類,一般地區環境音量,嘉義縣朴子市安福里山通路2-9號,使用中,,,,7,120.252764,23.467045
1316620EN004,嘉義縣,人工,,嘉義縣環保局,第三類,一般地區環境音量,嘉義縣朴子市祥和新村祥和二路西段2-1號,使用中,,,,18,120.2826204,23.45972022
1216420TN002,雲林縣,人工,1000609,口湖測站,第三類,道路交通噪音,口湖鄉中正路一段280號,使用中,,,中正路,9,120.181149,23.585188
1216220EN001,雲林縣,人工,930101,元長測站,第一類,一般地區環境音量,元長鄉興工街9號,使用中,,,興工街,,120.331836,23.613444
1215920TN001,雲林縣,人工,930101,東勢測站,第二類,道路交通噪音,東勢鄉復國街11號,使用中,,,復國街,20,120.279919,23.679812
1215720EN002,雲林縣,人工,1000609,崙背測站,第三類,一般地區環境音量,崙背鄉南光路366號,使用中,,,南光路,14.2,120.350686,23.752629
1215620EN001,雲林縣,人工,930101,二崙測站,第二類,一般地區環境音量,二崙鄉隆興路28號,使用中,,,隆興路,,120.361512,23.776077
1215320TN002,雲林縣,人工,930101,大埤測站,第一類,道路交通噪音,大埤鄉豐田村14號,使用中,,,台1線,20,120.469766,23.642264
1215220TN002,雲林縣,人工,1000609,古坑測站,第二類,道路交通噪音,古坑鄉光昌路260號,使用中,,,光昌路,20,120.547045,23.639531
1215020EN002,雲林縣,人工,1000609,土庫測站,第二類,一般地區環境音量,土庫鎮成功路84號,使用中,,,成功路,6.8,120.351813,23.761123
1214820TN002,雲林縣,人工,1000609,虎尾測站,第三類,道路交通噪音,虎尾鎮光復路151號,使用中,,,光復路,10,120.445679,23.709399
1214720EN002,雲林縣,人工,1000609,斗南測站,第三類,一般地區環境音量,斗南鎮福德街151號,使用中,,,福德街,7.8,120.478837,23.679228
1214626TN001,雲林縣,自動,930101,斗六市大學路測站,第三類,道路交通噪音,斗六市大學路,使用中,,,大學路,20,120.535169,23.696485
1114220EN002,南投縣,人工,920101,國姓鄉乾溝村辦公處站,第二類,一般地區環境音量,南投縣國姓鄉乾溝村辦公室旁,使用中,,,,8,120.8190142,24.03026945
1114120TN001,南投縣,人工,920101,日月潭風景區站,第一類,道路交通噪音,南投縣魚池鄉日月潭中興路136號,使用中,,,中興路,8,120.907132,23.863719
1114120EN001,南投縣,人工,950101,魚池鄉日月潭進水口站,第一類,一般地區環境音量,南投縣魚池鄉,使用中,,,,,120.9042,23.848319
1113720TN003,南投縣,人工,920101,集集民眾服務站,第二類,道路交通噪音,南投縣集集鎮集集里成功路69號旁,使用中,,,成功路,15,120.780752,23.831067
1113620TN005,南投縣,人工,920101,竹山戶政事務所,第三類,道路交通噪音,南投縣竹山鎮中山里大智路823號旁,使用中,,,大智路,10,120.688334,23.754318
1113620EN004,南投縣,人工,920101,竹山工業區服務站,第一類,一般地區環境音量,南投縣竹山鎮延平路5號旁,使用中,,,,10,120.704641,23.767731
1113520TN003,南投縣,人工,920101,草屯鎮新生路站,第三類,道路交通噪音,南投縣草屯鎮新生路76號旁,使用中,,,新生路,10,120.684428,23.965195
1113520EN003,南投縣,人工,920101,草屯鎮衛生所站,第三類,一般地區環境音量,南投縣草屯鎮炎峰里碧山路50號,使用中,,,,8,120.6780777,23.98019736
1113420EN005,南投縣,人工,920101,埔里環保公園站,第三類,一般地區環境音量,南投縣埔里鎮杷城里民有三街20號旁,使用中,,,,6,120.971746,23.957078
1113326TN002,南投縣,自動,920101,南崗站,第一類,道路交通噪音,,使用中,,,,30,120.669107,23.926954
1113326TN001,南投縣,自動,920101,南投站,第三類,道路交通噪音,,使用中,,,,12,120.68835,23.902312
1113320TN006,南投縣,人工,920101,南崗工業區南崗會堂站,第一類,道路交通噪音,南投市成功一路南崗工業區南崗會堂前,使用中,,,成功一路,15,120.668828,23.926621
1113320TN002,南投縣,人工,920101,中興新村站,第二類,道路交通噪音,南投市中興新村光明一路252號旁,使用中,,,,8,120.700479,23.9358
1113320EN003,南投縣,人工,920101,南投市軍功營區站,第二類,一般地區環境音量,南投市東山里軍功營區,使用中,,,,8,120.704942,23.919501
1012920TN001,彰化縣,人工,1030626,芳苑鄉交通測站,第三類,道路交通噪音,芳苑鄉斗苑路163號,使用中,,,斗苑路,15,120.321756,23.922983
1012620EN001,彰化縣,人工,1030624,二水鄉環境測站,第二類,一般地區環境音量,二水鄉文化村光文路119號,使用中,,,,7,120.616784,23.811125
1011920TN001,彰化縣,人工,1030524,花壇鄉交通測站,第二類,道路交通噪音,花壇鄉南口村中山路2段182號,使用中,,,中山路,50,120.538189,24.029581
1011820TN001,彰化縣,人工,1030524,秀水鄉交通測站,第二類,道路交通噪音,秀水鄉埔崙村彰水路2段341號,使用中,,,彰水路,25,120.493235,24.026534
1011220TN001,彰化縣,人工,1030526,溪湖鎮交通測站,第三類,道路交通噪音,溪湖鎮大溪路二段110號,使用中,,,大溪路,10,120.486508,23.967627
1011126TN002,彰化縣,人工,1040520,員林鎮固定交通測站,第二類,道路交通噪音,員林市中山路二段280號(面對僑信國小門口左方),使用中,,,中山路,15,120.3417191,23.5824348
1011120EN002,彰化縣,人工,1030526,員林鎮環境測站,第三類,一般地區環境音量,員林市興隆街上公園(近復興五街),使用中,,,,6.2,120.563791,23.967826
1011020EN001,彰化縣,人工,1030624,北斗鎮環境測站,第一類,一般地區環境音量,北斗鎮中山路1段260巷36弄15號,使用中,,,中山路,10,120.515749,23.869542
1010726TN002,彰化縣,人工,1030523,彰化市固定交通測站,第二類,道路交通噪音,彰化市南興里中山路一段213號,使用中,,,中山路,25,120.534402,24.05802
1010720TN001,彰化縣,人工,1030514,彰化市交通測站,第一類,道路交通噪音,彰化市中山路3段359號,使用中,,,中山路,25,120.56213,24.087407
1010720EN005,彰化縣,人工,1030514,環保局,第三類,一般地區環境音量,彰化市健興路1號,使用中,,,體育館,7,120.552592,24.067988
1010720EN001,彰化縣,人工,1030604,彰化市環境測站,第二類,一般地區環境音量,彰化市師大路2號,使用中,,,,30,120.558482,24.064716
0808520TN001,苗栗縣,人工,940330,泰安鄉梅園村,第一類,道路交通噪音,泰安鄉梅園村9號附近,使用中,,,苗-62,8,120.978978,24.392961
0808520EN001,苗栗縣,人工,940330,泰安鄉梅園村,第一類,一般地區環境音量,苗栗縣泰安鄉梅園村6鄰30號附近,使用中,,,,6,120.965942,24.38487
0808220TN001,苗栗縣,人工,930101,造橋鄉龍昇村,第二類,道路交通噪音,苗栗縣造橋鄉龍昇村學府路82號旁,使用中,,,學府路,12,120.843789,24.648202
0808120EN001,苗栗縣,人工,,西湖鄉五湖村,第二類,一般地區環境音量,西湖鄉五湖村上灣福德祠,使用中,,,苗119線,6,120.775012,24.518594
0808020EN001,苗栗縣,人工,,三義鄉三義工業區,第一類,一般地區環境音量,三義鄉三義工業區管理中心後方,使用中,,,尖豐公路,8,120.746613,24.376105
0807920EN002,苗栗縣,人工,,頭屋鄉北坑村,第三類,一般地區環境音量,頭屋鄉北坑村9鄰56號前方30公尺土地公廟,使用中,,,北坑56號前之產業道路,4,120.85425,24.582105
0807720TN001,苗栗縣,人工,930101,銅鑼鄉中興工業區,第一類,道路交通噪音,銅鑼鄉中平村中興路3號前方,使用中,,,中興路,12,120.800879,24.493924
0807720EN002,苗栗縣,人工,,銅鑼鄉銅鑼工業區,第一類,一般地區環境音量,銅鑼鄉銅鑼村光麗新城2號旁福德祠,使用中,,,新興路,6,120.792414,24.482618
0807620TN001,苗栗縣,人工,930101,公館鄉館南村,第三類,道路交通噪音,公館鄉館南村193號旁,使用中,930401,,智通街,10,120.821511,24.499992
0807620EN001,苗栗縣,人工,930101,公館鄉館南村,第三類,一般地區環境音量,公館鄉館南村仁愛路210巷20號旁,使用中,,,仁愛路,6,120.824214,24.502599
0807320EN001,苗栗縣,人工,,後龍鎮豐富里,第二類,一般地區環境音量,後龍鎮豐富里新東路42-1號前方30公尺處稻田邊,使用中,,,新東路42-1號前產業道,3,120.82673,24.600694
0807220TN001,苗栗縣,人工,930101,頭份鎮蘆竹里,第一類,道路交通噪音,頭份鎮中華路599號,使用中,,,中華路,20,120.897739,24.677915
0807120TN001,苗栗縣,人工,930101,竹南鎮新南里,第二類,道路交通噪音,竹南鎮新南里永貞路二段198號（公園大門）,使用中,,,公園一路,20,120.886431,24.69053
0806820TN001,苗栗縣,人工,930101,苗栗市玉華里,第三類,道路交通噪音,苗栗市玉華里玉清路337巷37號,使用中,,,玉清路,32,120.83158,24.562283
0706820TN001,新竹縣,人工,1101015,文山國小,第二類,道路交通噪音,新竹縣新埔鎮國校街160號,使用中,,,,18.2,254905,2746644
0706820EN001,新竹縣,人工,1101015,文山國小,第二類,一般地區環境音量,新竹縣新埔鎮國校街160號,使用中,,,,,254857,2746455
0706120TN002,新竹縣,人工,1101015,忠孝國中,第二類,道路交通噪音,新竹縣新豐鄉孝六街1號,使用中,,,,8.8,249936,2752390
0706120EN002,新竹縣,人工,1101015,忠孝國中,第二類,一般地區環境音量,新竹縣新豐鄉孝六街1號,使用中,,,,,249970,2752423
0706120EN001,新竹縣,人工,1030506,瑞興國小,第二類,一般地區環境音量,新竹縣新豐鄉瑞興村63號,使用中,,,,4,121.00992,24.911753
0705920TN004,新竹縣,人工,1030502,新湖國中,第二類,道路交通噪音,湖口鄉新湖路200號,使用中,,,新湖路,12.5,121.035658,24.902679
0705920TN002,新竹縣,人工,1030506,湖口工業區光復北路,第一類,道路交通噪音,湖口鄉光復北路,使用中,,,光復北路,12.5,121.014844,24.860915
0705920EN010,新竹縣,人工,1030502,湖口檢驗中心,第三類,一般地區環境音量,湖口鄉德盛村108-2號,使用中,,,,4.8,121.023288,24.904246
0705920EN009,新竹縣,人工,1030502,新湖國中,第二類,一般地區環境音量,湖口鄉新湖路200號,使用中,,,,12.5,121.036114,24.903278
0705920EN008,新竹縣,人工,1030506,湖口污水廠,第一類,一般地區環境音量,自強路,使用中,,,自強路,12.5,120.99932,24.866425
0705820TN005,新竹縣,人工,1030507,上館國小,第二類,道路交通噪音,竹東鎮中豐路二段399號,使用中,,,,15,121.088187,24.726285
0705820TN001,新竹縣,人工,1030507,竹東清潔隊,第三類,道路交通噪音,竹東鎮雞林里長安路101號,使用中,,,長安路,10.8,121.092108,24.735811
0705620TN001,新竹縣,人工,1030507,東安國小,第二類,道路交通噪音,關西鎮東安里中山東路40號,使用中,,,,10,121.183244,24.789364
0705620EN001,新竹縣,人工,1030430,東安國小,第二類,一般地區環境音量,關西鎮東安里中山東路40號,使用中,,,,10,121.184531,24.789954
0705520TN001,新竹縣,人工,1030430,新竹縣政府,第三類,道路交通噪音,竹北市光明六路10號,使用中,,,,24,121.01235,24.8259
0705520EN003,新竹縣,人工,1030430,新竹縣環保局,第三類,一般地區環境音量,竹北市光明五街62號,使用中,,,,8.2,121.013648,24.828543
0605420TN002,桃園市,人工,1090515,北橫公路18.3K,第一類,道路交通噪音,"台七 縣18.3K",使用中,,,,16,24.810475,121.352485
0605420TN001,桃園市,人工,950918,復興青年活動中心,第一類,道路交通噪音,復興鄉中正路2號,使用中,,因蟲鳴鳥叫聲及其他人為噪音影響而超標，且有無音源可改善疑慮，故刪除,中正路,6.8,121.350904,24.813128
0605420EN003,桃園市,人工,1090515,霞雲探索教育基地,第一類,一般地區環境音量,桃園市復興區,使用中,,,,,24.810981,121.351623
0605420EN002,桃園市,人工,950918,林務局復興站,第一類,一般地區環境音量,復興鄉忠孝路12號,使用中,,因判定土地使用區分為風景區，故屬第一類管制區，經重新檢視比對108年度公告，該地土地使用分區應為公園用地，屬第三類管制區，故刪除,忠孝路,6,121.351107,24.814229
0605320TN002,桃園市,人工,930501,草漯國小前新生路,第二類,道路交通噪音,觀音鄉草漯村195號,使用中,,,新生路,16,121.142936,25.04554
0605220EN003,桃園市,人工,920501,笨港國小,第二類,一般地區環境音量,新屋鄉笨港村二鄰1-1號,使用中,,,桃106鄉道,,121.02597,24.974816
0605120TN003,桃園市,人工,930501,中平國小前民族路,第三類,道路交通噪音,"平鎮市民族路雙連三段 37 號",使用中,,經重新檢視比對年108年度公告，發現該測點土地使用區分應為零星工業區，屬第四類噪音管制區,民權路,22,121.178191,24.958942
0605120EN001,桃園市,人工,930501,山豐國小,第二類,一般地區環境音量,平鎮市中豐路山頂段375巷45號,使用中,,,中豐路,,121.212802,24.896792
0605020TN001,桃園市,人工,950918,龍潭運動公園前北龍路,第三類,道路交通噪音,龍潭鄉北龍路,使用中,,,北龍路,24,121.218494,24.868274
0605020EN001,桃園市,人工,920501,龍潭國小,第二類,一般地區環境音量,龍潭鄉南龍路13號,使用中,,,南龍路,,121.213531,24.864283
0604920TN004,桃園市,人工,930501,忠義街社區,第二類,道路交通噪音,"八德市忠義街 103 號",使用中,,,忠義街,8,121.271923,24.97111
0604920EN001,桃園市,人工,950918,大勇國小附近,第二類,一般地區環境音量,八德市自強街60號,使用中,,,自強街,8,121.3039,24.969116
0604820TN001,桃園市,人工,950918,華亞科技園區管理中心,第一類,道路交通噪音,龜山鄉文化村文化二路176-1號,使用中,,,中正東路,16,121.371283,25.050477
0604720TN001,桃園市,人工,930501,北湖國小,第二類,道路交通噪音,新屋鄉東興路二段765號旁,使用中,,,康興路(桃93),8,121.049831,25.0057
0604620TN002,桃園市,人工,1090515,台茂公園,第三類,道路交通噪音,桃園市蘆竹區錦溪路119號,使用中,,,,10,25.054275,121.289548
0604620TN001,桃園市,人工,920501,南崁路南崁橋附近,第三類,道路交通噪音,蘆竹鄉南崁路一段381號,使用中,,其土地區分為河川區兼供道路使用，屬第四類管制區，因第四類已滿，故停用,南崁路,22,121.280994,25.055901
0604620EN002,桃園市,人工,920501,黃帝廟,第三類,一般地區環境音量,蘆竹鄉山腳村5鄰51號,使用中,,,黃帝街,6,121.29477,25.090069
0604520TN006,桃園市,人工,920501,水美國小,第二類,道路交通噪音,楊梅鎮楊新路2段2號,使用中,,,楊新路,12,121.138043,24.918861
0604420TN002,桃園市,人工,920501,石門水庫,第一類,道路交通噪音,大溪鎮康莊路五段,使用中,,,康莊路,12.5,121.257321,24.821948
0604420EN004,桃園市,人工,930501,溪洲公園,第一類,一般地區環境音量,大溪鎮復興里環湖路1號,使用中,,,環湖公路,,121.247871,24.81197
0604420EN002,桃園市,人工,930501,大溪中正公園,第三類,一般地區環境音量,大溪鎮普濟路中正公園,使用中,,,普濟路,6,121.284878,24.883254
0604320TN006,桃園市,人工,1090515,中壢藝術園區,第三類,道路交通噪音,桃園市中壢區南園二路86號(中福派出所)旁,使用中,,,,18,24.97173,121.233283
0604320TN005,桃園市,人工,1090515,過嶺兒童公園,第三類,道路交通噪音,,使用中,,桃園市中壢區松智一街與松智路岔路口,,11,24.959618,121.173664
0604320TN004,桃園市,人工,950918,啟英工家前中園路,第一類,道路交通噪音,中壢市中園路447號,使用中,,為丁種建築用地，因第四類已額滿，故停用,中園路,30,121.235947,24.975249
0604320EN002,桃園市,人工,1090515,青埔兒十公園,第三類,一般地區環境音量,桃園市中壢區洽溪路青埔兒十公園,使用中,,,,,25.010962,121.20898
0604320EN001,桃園市,人工,950918,中壢工業區服務中心,第一類,一般地區環境音量,中壢市東園路57號,使用中,,,東園路,16,121.239184,24.978973
0604220TN005,桃園市,人工,1090515,桃園火車站,第一類,道路交通噪音,桃園縣桃園市中正路1號(桃園火車站前圓環內),使用中,,,中正路,12,121.313398,24.989535
0604220TN004,桃園市,人工,950918,桃園火車站,第三類,道路交通噪音,桃園縣桃園市中正路1號(桃園火車站前圓環內),使用中,,原判定土地使用區分為車站專用區，屬第三類。經重新檢視比對108年度公告，此應為第四類管制區。,中正路,12,121.313398,24.989535
0604220EN005,桃園市,人工,950918,虎頭山公園,第三類,一般地區環境音量,桃園市公園路42號,使用中,,,公園路,6,121.327627,25.002239
0604220EN002,桃園市,人工,950918,龜山工業區服務中心,第一類,一般地區環境音量,桃園市大誠路9號,使用中,,,大誠路,12,121.322209,24.983493
0503820EN004,宜蘭縣,人工,1030322,五結鄉公所,第三類,一般地區環境音量,五結鄉五結路一號,使用中,,,五結鄉五結路,8,121.798735,24.684775
0503220TN001,宜蘭縣,人工,1030104,龍德工業區服務中心,第一類,道路交通噪音,蘇澳鎮自強路十二號,使用中,,,蘇澳鎮自強路,16,121.829267,24.633775
0503220EN007,宜蘭縣,人工,1030106,龍德工業區廢水處理廠,第一類,一般地區環境音量,冬山鄉德興十一路一號,使用中,,,冬山鄉德興十一路,8,121.8134239,24.636785
0503120EN003,宜蘭縣,人工,1030325,羅東鎮運動公園,第三類,一般地區環境音量,羅東鎮公正路六六六號,使用中,,,羅東鎮四維路,6,121.75422,24.684463
0503020TN005,宜蘭縣,人工,1030220,中山公園,第三類,道路交通噪音,宜蘭市舊城南路,使用中,,,舊城南路,16,121.753553,24.754253
0503020TN004,宜蘭縣,人工,1030317,縣立文化中心,第二類,道路交通噪音,宜蘭市復興路二段一0一號,使用中,,,農權路一段,8,121.743646,24.748511
0503020TN003,宜蘭縣,人工,1030314,地政大樓,第三類,道路交通噪音,宜蘭市泰山路六十六之五號,使用中,,,宜蘭市泰山路,12,121.745965,24.754419
0503020TN002,宜蘭縣,人工,1030118,中山國小,第二類,道路交通噪音,宜蘭市崇聖街四號,使用中,,,和睦路,8,121.75592,24.753394
0503020EN004,宜蘭縣,人工,1030225,縣立孔子廟,第二類,一般地區環境音量,宜蘭市宜興路一七0號,使用中,,,宜蘭市宜興路,8,121.755849,24.76217
0503020EN002,宜蘭縣,人工,1030111,宜蘭醫院,第二類,一般地區環境音量,宜蘭市新民路一五二號,使用中,,,宜蘭市新民路,6,121.754965,24.757893
0402726TN001,新北市,自動,1000915,金山國家公園,第一類,道路交通噪音,新北市金山區陽明山國家公園界碑前,使用中,,,,8,121.547756,25.155822
0402720EN001,新北市,人工,850701,金山國家公園,第一類,一般地區環境音量,金山區三重橋11號邊,使用中,,,陽金公路,10,121.592954,25.193833
0402620EN001,新北市,人工,1000609,貢寮鄉衛生所,第三類,一般地區環境音量,新北市貢寮區朝陽街70巷10號,使用中,,,,8,121.909634,25.022545
0402420EN001,新北市,人工,1000609,平溪鄉平溪街,第二類,一般地區環境音量,新北市平溪區平溪街,使用中,,,,5,121.736932,25.02725
0402320TN001,新北市,人工,1000609,八里中華路,第三類,道路交通噪音,新北市八里區中華路,使用中,,,,12,121.400878,25.146052
0402120EN001,新北市,人工,1000609,大屯自然公園,第一類,一般地區環境音量,新北市三芝區新華村,使用中,,,,15,121.522779,25.187544
0401720EN001,新北市,人工,790601,林口竹林山寺,第二類,一般地區環境音量,林口區竹林路323號,使用中,,,竹林路,10,121.389844,25.08298
0401520EN001,新北市,人工,890301,五股污水處理廠,第一類,一般地區環境音量,五股區五工六路77號,使用中,,,五工六路,12,121.446717,25.068783
0401320TN003,新北市,人工,1020422,土城忠承路,第一類,道路交通噪音,,使用中,,,,10,121.440186,24.966698
0401220TN001,新北市,人工,890301,瑞芳坑子內路,第二類,道路交通噪音,瑞芳區坑子內路1之1號旁,使用中,,,魚坑路,8,121.793704,25.10677
0401120EN002,新北市,人工,1000807,伴吾社區,第二類,一般地區環境音量,新北市新店區安祥路106巷1號,使用中,,,,12,121.478743,24.962395
0401120EN001,新北市,人工,930101,汐止長青路,第二類,一般地區環境音量,汐止區長青路210巷6弄30號前,使用中,,,長青路,7,121.613975,25.111521
0401020TN004,新北市,人工,1000609,淡水沙崙路,第二類,道路交通噪音,新北市淡水區沙崙路,使用中,,,,8,121.422014,25.181913
0401020TN003,新北市,人工,1000609,淡水巴拉卡公路,第一類,道路交通噪音,新北市淡水區巴拉卡公路,使用中,,,,6,121.511428,25.184418
0401020EN002,新北市,人工,970101,淡水休閒農場,第三類,一般地區環境音量,淡水鎮民權路12-3巷1號,使用中,,,民權路,26,121.459308,25.138447
0400920TN001,新北市,人工,1000609,三峽大德路,第二類,道路交通噪音,新北市三峽區大德路,使用中,,,,12,121.376824,24.943982
0400720TN001,新北市,人工,970601,樹林中正路,第一類,道路交通噪音,新北市樹林區中正路,使用中,,,,16,121.42019,25.005768
0400620EN004,新北市,人工,790601,新莊化成路,第一類,一般地區環境音量,新莊區化成路746巷55號旁,使用中,,,化成路,6,121.466791,25.058729
0400420EN001,新北市,人工,1000609,四號公園,第三類,一般地區環境音量,新北市中和區中安街旁,使用中,,,,8,121.513767,25.003581
0400320EN001,新北市,人工,1000609,仁愛公園,第三類,一般地區環境音量,新北市永和區仁愛路244號,使用中,,,,8,121.506965,25.011515
0400220TN001,新北市,人工,1000609,三重三民街,第三類,道路交通噪音,新北市三重區三民公園旁,使用中,,,,18,121.482802,25.065283
0400126TN001,新北市,自動,1050101,板橋地政事務所,第三類,道路交通噪音,板橋區實踐路1號,使用中,,,,15,121.274851,25.002992
0400120TN004,新北市,人工,1020422,板橋陽明街,第二類,道路交通噪音,板橋陽明街,使用中,,,,10,121.462841,25.025134
0400120TN002,新北市,人工,810701,板橋永豐街,第三類,道路交通噪音,板橋市永豐街55巷62號對面華江公園內,使用中,,,縣民大道,20,121.471831,25.019198
0400120EN004,新北市,人工,930101,板橋中正路,第三類,一般地區環境音量,板橋區中正路370號對面玫瑰公園內,使用中,,,中正路,15,121.455754,25.023488
